NESS                    
1 58020U 23155E   26068.76452457  .00019469  00000+0  74047-3 0  9996
2 58020  97.5941 152.6141 0006891 179.8776 180.2465 15.26794015133307
YAOGAN-39 05A           
1 58557U 23194A   26067.87191563  .00015822  00000+0  65636-3 0  9996
2 58557  35.0016 328.2574 0004592 131.0582 229.0530 15.23021204125052
