[{"OBJECT_NAME":"NESS","OBJECT_ID":"2023-155E","EPOCH":"2026-03-09T18:20:54.923712","MEAN_MOTION":15.26794015,"ECCENTRICITY":0.00068914,"INCLINATION":97.5941,"RA_OF_ASC_NODE":152.6141,"ARG_OF_PERICENTER":179.8776,"MEAN_ANOMALY":180.2465,"EPHEMERIS_TYPE":0,"CLASSIFICATION_TYPE":"U","NORAD_CAT_ID":58020,"ELEMENT_SET_NO":999,"REV_AT_EPOCH":13330,"BSTAR":0.00074047066,"MEAN_MOTION_DOT":0.00019469,"MEAN_MOTION_DDOT":0},{"OBJECT_NAME":"YAOGAN-39 05A","OBJECT_ID":"2023-194A","EPOCH":"2026-03-08T20:55:33.510432","MEAN_MOTION":15.23021204,"ECCENTRICITY":0.00045924,"INCLINATION":35.0016,"RA_OF_ASC_NODE":328.2574,"ARG_OF_PERICENTER":131.0582,"MEAN_ANOMALY":229.053,"EPHEMERIS_TYPE":0,"CLASSIFICATION_TYPE":"U","NORAD_CAT_ID":58557,"ELEMENT_SET_NO":999,"REV_AT_EPOCH":12505,"BSTAR":0.00065635507,"MEAN_MOTION_DOT":0.00015822,"MEAN_MOTION_DDOT":0}]
